*******************************************************************************
Ephemeris / WWW_USER Fri Mar  7 10:26:25 2025 Pasadena, USA      / Horizons    
*******************************************************************************
Target body name: (2018 RG5)                      {source: JPL#6}
Center body name: Earth (399)                     {source: DE441}
Center-site name: Mauna Kea
*******************************************************************************
Start time      : A.D. 2018-Nov-15 03:52:00.0000 UT      
Stop  time      : A.D. 2018-Nov-15 16:20:00.0000 UT      
Step-size       : 1 minutes
*******************************************************************************
Target pole/equ : undefined
Target radii    : undefined                                                    
Center geodetic : 204.5278, 19.8260847, 4.21024   {E-lon(deg),Lat(deg),Alt(km)}
Center cylindric: 204.5278, 6006.35451, 2151.0229 {E-lon(deg),Dxy(km),Dz(km)}
Center pole/equ : ITRF93                          {East-longitude positive}
Center radii    : 6378.137, 6378.137, 6356.752 km {Equator_a, b, pole_c}       
Target primary  : Sun
Vis. interferer : MOON (R_eq= 1737.400) km        {source: DE441}
Rel. light bend : Sun                             {source: DE441}
Rel. lght bnd GM: 1.3271E+11 km^3/s^2                                          
Small-body perts: Yes                             {source: SB441-N16}
Atmos refraction: NO (AIRLESS)
RA format       : HMS
Time format     : CAL 
Calendar mode   : Mixed Julian/Gregorian
RTS-only print  : NO       
EOP file        : eop.250306.p250602                                           
EOP coverage    : DATA-BASED 1962-JAN-20 TO 2025-MAR-06. PREDICTS-> 2025-JUN-01
Units conversion: 1 au= 149597870.700 km, c= 299792.458 km/s, 1 day= 86400.0 s 
Table cut-offs 1: Elevation (-90.0deg=NO ),Airmass (>38.000=NO), Daylight (YES)
Table cut-offs 2: Solar elongation (  0.0,180.0=NO ),Local Hour Angle( 0.0=NO )
Table cut-offs 3: RA/DEC angular rate (     0.0=NO )                           
*******************************************************************************
Initial IAU76/J2000 heliocentric ecliptic osculating elements (au, days, deg.):
  EPOCH=  2458374.5 ! 2018-Sep-13.00 (TDB)         Residual RMS= .44286        
   EC= .3970272763955992   QR= .9476094655819058   TP= 2458410.7007282218      
   OM= 172.9777515025259   W=  220.286388004559    IN= 6.065188755768435       
  Equivalent ICRF heliocentric cartesian coordinates (au, au/d):
   X= 1.011373795361920E+00  Y=-1.657289676662098E-01  Z=-6.569093016663846E-02
  VX=-6.707749535245534E-04 VY= 1.878070382659777E-02 VZ= 5.901532854039199E-03
Asteroid physical parameters (km, seconds, rotational period in hours):        
   GM= n.a.                RAD= n.a.               ROTPER= n.a.                
   H= 26.76                G= .150                 B-V= n.a.                   
                           ALBEDO= n.a.            STYP= n.a.                  
*******************************************************************************
 Date__(UT)__HR:MN     R.A._________(ICRF)_________DEC
******************************************************
$$SOE
 2018-Nov-15 10:01  m  09 37 10.226436 -10 07 04.04161
 2018-Nov-15 10:02  m  09 37 10.269968 -10 07 04.13851
 2018-Nov-15 10:03  m  09 37 10.313458 -10 07 04.23542
 2018-Nov-15 10:04     09 37 10.356905 -10 07 04.33233
 2018-Nov-15 10:05     09 37 10.400310 -10 07 04.42925
 2018-Nov-15 10:06     09 37 10.443673 -10 07 04.52618
 2018-Nov-15 10:07     09 37 10.486994 -10 07 04.62311
 2018-Nov-15 10:08     09 37 10.530272 -10 07 04.72005
 2018-Nov-15 10:09     09 37 10.573508 -10 07 04.81699
 2018-Nov-15 10:10     09 37 10.616701 -10 07 04.91394
 2018-Nov-15 10:11     09 37 10.659852 -10 07 05.01089
 2018-Nov-15 10:12     09 37 10.702961 -10 07 05.10784
 2018-Nov-15 10:13     09 37 10.746027 -10 07 05.20480
 2018-Nov-15 10:14     09 37 10.789051 -10 07 05.30176
 2018-Nov-15 10:15     09 37 10.832033 -10 07 05.39873
 2018-Nov-15 10:16     09 37 10.874972 -10 07 05.49569
 2018-Nov-15 10:17     09 37 10.917868 -10 07 05.59266
 2018-Nov-15 10:18     09 37 10.960723 -10 07 05.68963
 2018-Nov-15 10:19     09 37 11.003535 -10 07 05.78659
 2018-Nov-15 10:20     09 37 11.046304 -10 07 05.88356
 2018-Nov-15 10:21     09 37 11.089031 -10 07 05.98053
 2018-Nov-15 10:22     09 37 11.131716 -10 07 06.07749
 2018-Nov-15 10:23     09 37 11.174358 -10 07 06.17446
 2018-Nov-15 10:24     09 37 11.216957 -10 07 06.27142
 2018-Nov-15 10:25     09 37 11.259515 -10 07 06.36838
 2018-Nov-15 10:26  r  09 37 11.302030 -10 07 06.46534
 2018-Nov-15 10:27     09 37 11.344502 -10 07 06.56229
 2018-Nov-15 10:28     09 37 11.386932 -10 07 06.65924
 2018-Nov-15 10:29     09 37 11.429320 -10 07 06.75618
 2018-Nov-15 10:30     09 37 11.471665 -10 07 06.85312
 2018-Nov-15 10:31     09 37 11.513968 -10 07 06.95006
 2018-Nov-15 10:32     09 37 11.556228 -10 07 07.04698
 2018-Nov-15 10:33     09 37 11.598446 -10 07 07.14391
 2018-Nov-15 10:34     09 37 11.640622 -10 07 07.24082
 2018-Nov-15 10:35     09 37 11.682756 -10 07 07.33773
 2018-Nov-15 10:36     09 37 11.724847 -10 07 07.43463
 2018-Nov-15 10:37     09 37 11.766895 -10 07 07.53152
 2018-Nov-15 10:38     09 37 11.808902 -10 07 07.62840
 2018-Nov-15 10:39     09 37 11.850866 -10 07 07.72528
 2018-Nov-15 10:40     09 37 11.892787 -10 07 07.82214
 2018-Nov-15 10:41     09 37 11.934667 -10 07 07.91900
 2018-Nov-15 10:42     09 37 11.976504 -10 07 08.01584
 2018-Nov-15 10:43     09 37 12.018299 -10 07 08.11267
 2018-Nov-15 10:44     09 37 12.060052 -10 07 08.20949
 2018-Nov-15 10:45     09 37 12.101762 -10 07 08.30630
 2018-Nov-15 10:46     09 37 12.143431 -10 07 08.40309
 2018-Nov-15 10:47     09 37 12.185057 -10 07 08.49988
 2018-Nov-15 10:48     09 37 12.226641 -10 07 08.59665
 2018-Nov-15 10:49     09 37 12.268182 -10 07 08.69340
 2018-Nov-15 10:50     09 37 12.309682 -10 07 08.79014
 2018-Nov-15 10:51     09 37 12.351140 -10 07 08.88687
 2018-Nov-15 10:52     09 37 12.392555 -10 07 08.98358
 2018-Nov-15 10:53     09 37 12.433929 -10 07 09.08027
 2018-Nov-15 10:54     09 37 12.475260 -10 07 09.17695
 2018-Nov-15 10:55     09 37 12.516550 -10 07 09.27361
 2018-Nov-15 10:56     09 37 12.557797 -10 07 09.37026
 2018-Nov-15 10:57     09 37 12.599003 -10 07 09.46688
 2018-Nov-15 10:58     09 37 12.640167 -10 07 09.56349
 2018-Nov-15 10:59     09 37 12.681288 -10 07 09.66008
 2018-Nov-15 11:00     09 37 12.722368 -10 07 09.75665
 2018-Nov-15 11:01     09 37 12.763406 -10 07 09.85320
 2018-Nov-15 11:02     09 37 12.804403 -10 07 09.94973
 2018-Nov-15 11:03     09 37 12.845357 -10 07 10.04624
 2018-Nov-15 11:04     09 37 12.886270 -10 07 10.14273
 2018-Nov-15 11:05     09 37 12.927141 -10 07 10.23920
 2018-Nov-15 11:06     09 37 12.967971 -10 07 10.33565
 2018-Nov-15 11:07     09 37 13.008759 -10 07 10.43207
 2018-Nov-15 11:08     09 37 13.049505 -10 07 10.52847
 2018-Nov-15 11:09     09 37 13.090210 -10 07 10.62485
 2018-Nov-15 11:10     09 37 13.130873 -10 07 10.72120
 2018-Nov-15 11:11     09 37 13.171495 -10 07 10.81753
 2018-Nov-15 11:12     09 37 13.212075 -10 07 10.91383
 2018-Nov-15 11:13     09 37 13.252614 -10 07 11.01011
 2018-Nov-15 11:14     09 37 13.293111 -10 07 11.10636
 2018-Nov-15 11:15     09 37 13.333568 -10 07 11.20259
 2018-Nov-15 11:16     09 37 13.373983 -10 07 11.29879
 2018-Nov-15 11:17     09 37 13.414356 -10 07 11.39496
 2018-Nov-15 11:18     09 37 13.454689 -10 07 11.49111
 2018-Nov-15 11:19     09 37 13.494980 -10 07 11.58723
 2018-Nov-15 11:20     09 37 13.535231 -10 07 11.68331
 2018-Nov-15 11:21     09 37 13.575440 -10 07 11.77937
 2018-Nov-15 11:22     09 37 13.615608 -10 07 11.87540
 2018-Nov-15 11:23     09 37 13.655736 -10 07 11.97140
 2018-Nov-15 11:24     09 37 13.695822 -10 07 12.06738
 2018-Nov-15 11:25     09 37 13.735867 -10 07 12.16331
 2018-Nov-15 11:26     09 37 13.775872 -10 07 12.25922
 2018-Nov-15 11:27     09 37 13.815836 -10 07 12.35510
 2018-Nov-15 11:28     09 37 13.855759 -10 07 12.45094
 2018-Nov-15 11:29     09 37 13.895642 -10 07 12.54675
 2018-Nov-15 11:30     09 37 13.935484 -10 07 12.64253
 2018-Nov-15 11:31     09 37 13.975286 -10 07 12.73828
 2018-Nov-15 11:32     09 37 14.015047 -10 07 12.83399
 2018-Nov-15 11:33     09 37 14.054767 -10 07 12.92966
 2018-Nov-15 11:34     09 37 14.094447 -10 07 13.02531
 2018-Nov-15 11:35     09 37 14.134087 -10 07 13.12091
 2018-Nov-15 11:36     09 37 14.173687 -10 07 13.21648
 2018-Nov-15 11:37     09 37 14.213246 -10 07 13.31202
 2018-Nov-15 11:38     09 37 14.252765 -10 07 13.40751
 2018-Nov-15 11:39     09 37 14.292244 -10 07 13.50297
 2018-Nov-15 11:40     09 37 14.331683 -10 07 13.59840
 2018-Nov-15 11:41     09 37 14.371083 -10 07 13.69378
 2018-Nov-15 11:42     09 37 14.410442 -10 07 13.78913
 2018-Nov-15 11:43     09 37 14.449761 -10 07 13.88443
 2018-Nov-15 11:44     09 37 14.489041 -10 07 13.97970
 2018-Nov-15 11:45     09 37 14.528281 -10 07 14.07493
 2018-Nov-15 11:46     09 37 14.567481 -10 07 14.17012
 2018-Nov-15 11:47     09 37 14.606641 -10 07 14.26526
 2018-Nov-15 11:48     09 37 14.645763 -10 07 14.36037
 2018-Nov-15 11:49     09 37 14.684844 -10 07 14.45543
 2018-Nov-15 11:50     09 37 14.723886 -10 07 14.55045
 2018-Nov-15 11:51     09 37 14.762889 -10 07 14.64543
 2018-Nov-15 11:52     09 37 14.801853 -10 07 14.74037
 2018-Nov-15 11:53     09 37 14.840778 -10 07 14.83526
 2018-Nov-15 11:54     09 37 14.879663 -10 07 14.93011
 2018-Nov-15 11:55     09 37 14.918510 -10 07 15.02491
 2018-Nov-15 11:56     09 37 14.957317 -10 07 15.11967
 2018-Nov-15 11:57     09 37 14.996086 -10 07 15.21439
 2018-Nov-15 11:58     09 37 15.034815 -10 07 15.30905
 2018-Nov-15 11:59     09 37 15.073506 -10 07 15.40368
 2018-Nov-15 12:00     09 37 15.112159 -10 07 15.49825
 2018-Nov-15 12:01     09 37 15.150772 -10 07 15.59278
 2018-Nov-15 12:02     09 37 15.189348 -10 07 15.68726
 2018-Nov-15 12:03     09 37 15.227885 -10 07 15.78170
